[{"OBJECT_NAME":"SITRO-AIS 8 (ANOKHIN)","OBJECT_ID":"2023-091AD","EPOCH":"2026-03-09T23:44:40.058592","MEAN_MOTION":15.29359179,"ECCENTRICITY":0.0012509,"INCLINATION":97.5169,"RA_OF_ASC_NODE":133.2823,"ARG_OF_PERICENTER":92.0171,"MEAN_ANOMALY":268.2501,"EPHEMERIS_TYPE":0,"CLASSIFICATION_TYPE":"U","NORAD_CAT_ID":57193,"ELEMENT_SET_NO":999,"REV_AT_EPOCH":14927,"BSTAR":0.00064982524,"MEAN_MOTION_DOT":0.00018494,"MEAN_MOTION_DDOT":0},{"OBJECT_NAME":"STARLINK-31443","OBJECT_ID":"2024-062V","EPOCH":"2026-03-09T19:16:57.761184","MEAN_MOTION":15.30194544,"ECCENTRICITY":0.00011143,"INCLINATION":53.1598,"RA_OF_ASC_NODE":242.5387,"ARG_OF_PERICENTER":90.0729,"MEAN_ANOMALY":270.0399,"EPHEMERIS_TYPE":0,"CLASSIFICATION_TYPE":"U","NORAD_CAT_ID":59393,"ELEMENT_SET_NO":999,"REV_AT_EPOCH":10986,"BSTAR":-5.166024e-5,"MEAN_MOTION_DOT":-1.888e-5,"MEAN_MOTION_DDOT":0}]
